[
    {
        "Altitude(m)": 610405.3342942208,
        "Argument of Periapsis(deg)": 0.0,
        "Eccentricity": 0.0,
        "Inclination(deg)": 60.0,
        "Latitude(deg)": 52.11130264580975,
        "Longitude(deg)": 42.477317721854725,
        "Mean Anomaly(deg)": 114.5455,
        "RAAN(deg)": 10.0,
        "Satellite Name": "Test1 51",
        "Satellite Number": 51,
        "Semi-Major Axis(m)": 6980739.136638005,
        "Time(s)": 0
    },
    {
        "Altitude(m)": 610321.9076891973,
        "Argument of Periapsis(deg)": 0.00010418945913296404,
        "Eccentricity": 0.0,
        "Inclination(deg)": 60.0,
        "Latitude(deg)": 51.74601867293823,
        "Longitude(deg)": 43.246213391437415,
        "Mean Anomaly(deg)": 115.16560614546184,
        "RAAN(deg)": 9.999579950860259,
        "Satellite Name": "Test1 51",
        "Satellite Number": 51,
        "Semi-Major Axis(m)": 6980739.136638005,
        "Time(s)": 10
    }
]